;FLAVOR:Marlin
;TIMB:250
;FilamBnt usBd: 0.00219037m, 0m
;LayBr hBight: 0.1
;MINX:14.249
;MINY:18.687
;MINZ:0.2
;MAXX:22.958
;MAXY:43.717
;MAXZ:0.2
;TARGBT_MACHINB.NAMB:Unknown
;GBnBratBd with Cura_StBamBnginB 5.10.0
M104 S0
M105
M109 S0

M82 ;absolutB Bxtrusion modB
G92 X0 Y0 Z0
;G92 B0
;G1 F300 B-6.5
;LAYBR_COUNT:1
;LAYBR:0
M107
;MBSH:2mm_DiamBtBr_3x3_4mm_Dist_TracB_2 v2.stl
G0 X17.091 Y39.289 Z0.2
;TYPB:WALL-INNBR
G1 F300 B-5
G92 B0
G1 F300 B0
G1 F90 X16.955 Y39.211 B0.0013
G1 X16.825 Y39.289 B0.00256
G1 X16.842 Y39.433 B0.00377
G1 X16.955 Y39.489 B0.00482
G1 X17.074 Y39.433 B0.00591
G1 X17.091 Y39.289 B0.00712
G0 F300 X17.198 Y39.394
G1 F90 X17.18 Y39.237 B0.00843
G1 X17.09 Y39.145 B0.0095
G1 X16.956 Y39.102 B0.01067
G1 X16.826 Y39.145 B0.01181
G1 X16.727 Y39.259 B0.01307
G1 X16.718 Y39.394 B0.01419
G1 X16.759 Y39.494 B0.01509
G1 X16.956 Y39.593 B0.01692
G1 X17.157 Y39.494 B0.01879
G1 X17.198 Y39.394 B0.01968
G0 F300 X17.239 Y39.555
G1 F90 X17.3 Y39.411 B0.02099
G1 X17.265 Y39.181 B0.02292
G1 X17.145 Y39.059 B0.02434
G1 X16.958 Y38.997 B0.02598
G1 X16.771 Y39.059 B0.02762
G1 X16.652 Y39.181 B0.02904
G1 X16.616 Y39.411 B0.03097
G1 X16.677 Y39.555 B0.03227
G1 X16.802 Y39.658 B0.03362
G1 X16.958 Y39.696 B0.03495
G1 X17.112 Y39.658 B0.03627
G1 X17.239 Y39.555 B0.03763
G0 F300 X17.256 Y39.568
;TYPB:WALL-OUTBR
G1 F90 X17.32 Y39.414 B0.03902
G1 X17.282 Y39.169 B0.04108
G1 X17.156 Y39.041 B0.04257
G1 X16.965 Y38.976 B0.04425
G1 X16.958 Y38.856 B0.04525
G1 X16.951 Y38.976 B0.04625
G1 X16.76 Y39.041 B0.04793
G1 X16.635 Y39.17 B0.04942
G1 X16.596 Y39.414 B0.05148
G1 X16.66 Y39.568 B0.05286
G1 X16.792 Y39.676 B0.05428
G1 X16.958 Y39.717 B0.0557
G1 X17.121 Y39.676 B0.0571
G1 X17.256 Y39.568 B0.05854
G0 F300 X17.305 Y39.449
G0 X16.958 Y38.856
G1 F90 X16.958 Y19.402 B0.2203
G1 F300 B-6.2797
G0 X16.952 Y41.064
G0 X16.97 Y41.353
G1 F300 B0.2203
G0 X16.976 Y41.353
;TYPB:WALL-INNBR
G1 F54.2 X16.946 Y41.336 B0.22078
G1 X16.946 Y41.37 B0.22124
G1 X16.976 Y41.353 B0.22172
G0 F300 X17.096 Y41.326
G1 F90 X17.074 Y41.272 B0.22221
G1 X16.943 Y41.209 B0.22341
G1 X16.852 Y41.252 B0.22425
G1 X16.815 Y41.33 B0.22497
G1 X16.835 Y41.416 B0.2257
G1 X16.934 Y41.488 B0.22672
G1 X17.054 Y41.449 B0.22777
G1 X17.096 Y41.326 B0.22885
G0 F300 X17.127 Y41.522
G1 F90 X17.197 Y41.311 B0.2307
G1 X17.158 Y41.212 B0.23158
G1 X16.946 Y41.106 B0.23355
G1 X16.778 Y41.178 B0.23507
G1 X16.715 Y41.306 B0.23626
G1 X16.744 Y41.464 B0.2376
G1 X16.918 Y41.59 B0.23938
G1 X17.127 Y41.522 B0.24121
G0 F300 X17.201 Y41.594
G1 F90 X17.284 Y41.457 B0.24254
G1 X17.299 Y41.295 B0.24389
G1 X17.242 Y41.153 B0.24517
G1 X17.118 Y41.047 B0.24652
G1 X16.891 Y41.011 B0.24843
G1 X16.703 Y41.102 B0.25017
G1 X16.616 Y41.28 B0.25182
G1 X16.653 Y41.512 B0.25377
G1 X16.761 Y41.634 B0.25513
G1 X16.903 Y41.691 B0.2564
G1 X17.063 Y41.677 B0.25774
G1 X17.201 Y41.594 B0.25907
G0 F300 X17.07 Y41.697
;TYPB:WALL-OUTBR
G1 F90 X17.216 Y41.609 B0.26049
G1 X17.303 Y41.463 B0.2619
G1 X17.319 Y41.292 B0.26333
G1 X17.258 Y41.141 B0.26469
G1 X17.128 Y41.028 B0.26612
G1 X16.954 Y40.984 B0.26761
G1 X16.696 Y41.084 B0.26991
G1 F88.2 X16.605 Y40.999 B0.27097
G1 X16.685 Y41.094 B0.27202
G1 F90 X16.597 Y41.275 B0.2737
G1 X16.635 Y41.521 B0.27577
G1 X16.749 Y41.651 B0.2772
G1 X16.9 Y41.712 B0.27856
G1 X17.07 Y41.697 B0.27998
G0 F300 X17.181 Y41.63
G0 X16.605 Y40.999
G1 F86.5 X15.96 Y40.351 B0.28788
G1 F88.2 X15.958 Y19.402 B0.46556
G1 F300 B-6.03444
G0 X15.958 Y18.687
G0 X14.257 Y18.699
G0 X14.249 Y41.647
G0 X15.811 Y43.209
G0 X16.952 Y43.064
G0 X16.97 Y43.353
G1 F300 B0.46556
G0 X16.976 Y43.353
;TYPB:WALL-INNBR
G1 F54.2 X16.946 Y43.336 B0.46603
G1 X16.946 Y43.37 B0.4665
G1 X16.976 Y43.353 B0.46698
G0 F300 X17.096 Y43.326
G1 F90 X17.074 Y43.272 B0.46746
G1 X16.943 Y43.209 B0.46867
G1 X16.852 Y43.252 B0.46951
G1 X16.815 Y43.33 B0.47023
G1 X16.835 Y43.416 B0.47096
G1 X16.934 Y43.488 B0.47198
G1 X17.054 Y43.449 B0.47303
G1 X17.096 Y43.326 B0.47411
G0 F300 X17.127 Y43.522
G1 F90 X17.197 Y43.311 B0.47596
G1 X17.158 Y43.212 B0.47684
G1 X16.946 Y43.106 B0.47881
G1 X16.778 Y43.178 B0.48033
G1 X16.715 Y43.306 B0.48152
G1 X16.744 Y43.464 B0.48286
G1 X16.918 Y43.59 B0.48464
G1 X17.127 Y43.522 B0.48647
G0 F300 X17.201 Y43.594
G1 F90 X17.284 Y43.457 B0.4878
G1 X17.299 Y43.295 B0.48915
G1 X17.242 Y43.153 B0.49043
G1 X17.118 Y43.047 B0.49178
G1 X16.891 Y43.011 B0.49369
G1 X16.703 Y43.102 B0.49543
G1 X16.616 Y43.28 B0.49708
G1 X16.653 Y43.512 B0.49903
G1 X16.761 Y43.634 B0.50039
G1 X16.903 Y43.691 B0.50166
G1 X17.063 Y43.677 B0.50299
G1 X17.201 Y43.594 B0.50433
G0 F300 X17.07 Y43.697
;TYPB:WALL-OUTBR
G1 F90 X17.216 Y43.609 B0.50575
G1 X17.303 Y43.463 B0.50716
G1 X17.319 Y43.292 B0.50859
G1 X17.258 Y43.141 B0.50995
G1 X17.128 Y43.028 B0.51138
G1 X16.954 Y42.984 B0.51287
G1 X16.696 Y43.084 B0.51517
G1 F88.2 X16.605 Y42.999 B0.51623
G1 X16.685 Y43.094 B0.51728
G1 F90 X16.597 Y43.275 B0.51895
G1 X16.635 Y43.521 B0.52102
G1 X16.749 Y43.651 B0.52246
G1 X16.9 Y43.712 B0.52382
G1 X17.07 Y43.697 B0.52523
G0 F300 X17.181 Y43.63
G0 X16.605 Y42.999
G1 F86.5 X14.96 Y41.351 B0.54537
G1 F88.2 X14.958 Y19.402 B0.73153
G1 F300 B-5.76847
G0 X18.91 Y43.069
G0 X18.97 Y43.353
G1 F300 B0.73153
G0 X18.976 Y43.353
;TYPB:WALL-INNBR
G1 F54.2 X18.946 Y43.336 B0.732
G1 X18.946 Y43.37 B0.73247
G1 X18.976 Y43.353 B0.73295
G0 F300 X19.096 Y43.326
G1 F90 X19.074 Y43.272 B0.73343
G1 X18.943 Y43.209 B0.73464
G1 X18.852 Y43.252 B0.73548
G1 X18.815 Y43.33 B0.7362
G1 X18.835 Y43.416 B0.73693
G1 X18.934 Y43.488 B0.73795
G1 X19.054 Y43.449 B0.739
G1 X19.096 Y43.326 B0.74008
G0 F300 X19.127 Y43.522
G1 F90 X19.197 Y43.311 B0.74193
G1 X19.158 Y43.212 B0.74281
G1 X18.946 Y43.106 B0.74478
G1 X18.778 Y43.178 B0.7463
G1 X18.715 Y43.306 B0.74749
G1 X18.744 Y43.464 B0.74882
G1 X18.918 Y43.59 B0.75061
G1 X19.127 Y43.522 B0.75244
G0 F300 X19.201 Y43.594
G1 F90 X19.284 Y43.457 B0.75377
G1 X19.299 Y43.295 B0.75512
G1 X19.242 Y43.153 B0.7564
G1 X19.118 Y43.047 B0.75775
G1 X18.891 Y43.011 B0.75966
G1 X18.703 Y43.102 B0.7614
G1 X18.616 Y43.28 B0.76305
G1 X18.653 Y43.512 B0.765
G1 X18.761 Y43.634 B0.76636
G1 X18.903 Y43.691 B0.76763
G1 X19.063 Y43.677 B0.76896
G1 X19.201 Y43.594 B0.7703
G0 F300 X19.07 Y43.697
;TYPB:WALL-OUTBR
G1 F90 X19.216 Y43.609 B0.77172
G1 X19.303 Y43.463 B0.77313
G1 X19.319 Y43.292 B0.77456
G1 X19.258 Y43.141 B0.77592
G1 X19.128 Y43.028 B0.77735
G1 X18.954 Y42.984 B0.77884
G1 X18.696 Y43.084 B0.78114
G1 F88.2 X18.605 Y42.999 B0.7822
G1 X18.685 Y43.094 B0.78325
G1 F90 X18.597 Y43.275 B0.78492
G1 X18.635 Y43.521 B0.78699
G1 X18.749 Y43.651 B0.78843
G1 X18.9 Y43.712 B0.78979
G1 X19.07 Y43.697 B0.7912
G0 F300 X19.181 Y43.63
G0 X18.605 Y42.999
G1 F86.5 X17.96 Y42.351 B0.79911
G1 F88.2 X17.958 Y19.402 B0.99375
G1 F300 B-5.50625
G0 X18.942 Y41.064
G0 X18.972 Y41.348
G1 F300 B0.99375
G0 X18.986 Y41.347
;TYPB:WALL-INNBR
G1 F56.2 X18.956 Y41.33 B0.99421
G1 X18.956 Y41.364 B0.99466
G1 X18.986 Y41.347 B0.99512
G0 F300 X19.105 Y41.334
G1 F90 X19.058 Y41.241 B0.99599
G1 X18.939 Y41.209 B0.99701
G1 X18.87 Y41.244 B0.99765
G1 X18.823 Y41.344 B0.99857
G1 X18.88 Y41.467 B0.9997
G1 X18.965 Y41.495 B1.00044
G1 X19.082 Y41.413 B1.00163
G1 X19.105 Y41.334 B1.00232
G0 F300 X19.173 Y41.462
G1 F90 X19.207 Y41.336 B1.0034
G1 X19.136 Y41.171 B1.00489
G1 X18.939 Y41.107 B1.00662
G1 X18.802 Y41.166 B1.00786
G1 X18.719 Y41.359 B1.0096
G1 X18.805 Y41.544 B1.0113
G1 X18.955 Y41.597 B1.01262
G1 X19.095 Y41.55 B1.01385
G1 X19.173 Y41.462 B1.01483
G0 F300 X19.263 Y41.511
G1 F90 X19.302 Y41.282 B1.01676
G1 X19.213 Y41.099 B1.01845
G1 X18.942 Y41.005 B1.02084
G1 X18.734 Y41.089 B1.0227
G1 X18.639 Y41.222 B1.02406
G1 X18.616 Y41.373 B1.02533
G1 X18.725 Y41.608 B1.02749
G1 X18.941 Y41.697 B1.02943
G1 X19.155 Y41.634 B1.03128
G1 X19.263 Y41.511 B1.03264
G0 F300 X19.281 Y41.52
;TYPB:WALL-OUTBR
G1 F90 X19.321 Y41.277 B1.03469
G1 X19.231 Y41.094 B1.03639
G1 F89.1 X19.31 Y41.002 B1.03741
G1 X19.218 Y41.081 B1.03842
G1 F90 X18.943 Y40.985 B1.04085
G1 X18.721 Y41.073 B1.04283
G1 X18.62 Y41.215 B1.04428
G1 X18.595 Y41.376 B1.04564
G1 X18.709 Y41.62 B1.04788
G1 X18.939 Y41.717 B1.04995
G1 X19.166 Y41.65 B1.05192
G1 X19.281 Y41.52 B1.05336
G0 F300 X19.302 Y41.392
G0 X19.31 Y41.002
G1 F87.4 X19.956 Y40.351 B1.06122
G1 F88.2 X19.958 Y19.402 B1.23889
G1 F300 B-5.26111
G0 X20.96 Y39.058
G0 X20.974 Y39.35
G1 F300 B1.23889
G0 X21.091 Y39.289
;TYPB:WALL-INNBR
G1 F90 X20.955 Y39.211 B1.2402
G1 X20.825 Y39.289 B1.24146
G1 X20.842 Y39.433 B1.24266
G1 X20.955 Y39.489 B1.24371
G1 X21.074 Y39.433 B1.2448
G1 X21.091 Y39.289 B1.24601
G0 F300 X21.198 Y39.394
G1 F90 X21.18 Y39.237 B1.24732
G1 X21.09 Y39.145 B1.24839
G1 X20.956 Y39.102 B1.24956
G1 X20.826 Y39.145 B1.2507
G1 X20.727 Y39.259 B1.25196
G1 X20.718 Y39.394 B1.25308
G1 X20.759 Y39.494 B1.25398
G1 X20.956 Y39.593 B1.25582
G1 X21.157 Y39.494 B1.25768
G1 X21.198 Y39.394 B1.25858
G0 F300 X21.239 Y39.555
G1 F90 X21.3 Y39.411 B1.25988
G1 X21.265 Y39.181 B1.26181
G1 X21.145 Y39.059 B1.26324
G1 X20.958 Y38.997 B1.26487
G1 X20.771 Y39.059 B1.26651
G1 X20.652 Y39.181 B1.26793
G1 X20.616 Y39.411 B1.26986
G1 X20.677 Y39.555 B1.27116
G1 X20.802 Y39.658 B1.27251
G1 X20.958 Y39.696 B1.27385
G1 X21.112 Y39.658 B1.27517
G1 X21.239 Y39.555 B1.27652
G0 F300 X21.256 Y39.568
;TYPB:WALL-OUTBR
G1 F90 X21.32 Y39.414 B1.27791
G1 X21.282 Y39.169 B1.27997
G1 X21.156 Y39.041 B1.28147
G1 X20.965 Y38.976 B1.28314
G1 X20.958 Y38.856 B1.28414
G1 X20.951 Y38.976 B1.28514
G1 X20.76 Y39.041 B1.28682
G1 X20.635 Y39.17 B1.28831
G1 X20.596 Y39.414 B1.29037
G1 X20.66 Y39.568 B1.29176
G1 X20.792 Y39.676 B1.29317
G1 X20.958 Y39.717 B1.2946
G1 X21.121 Y39.676 B1.29599
G1 X21.256 Y39.568 B1.29743
G0 F300 X21.305 Y39.449
G0 X20.958 Y38.856
G1 F90 X20.958 Y19.402 B1.45919
G1 F300 B-5.04081
G0 X20.942 Y41.064
G0 X20.972 Y41.348
G1 F300 B1.45919
G0 X20.986 Y41.347
;TYPB:WALL-INNBR
G1 F56.2 X20.956 Y41.33 B1.45965
G1 X20.956 Y41.364 B1.4601
G1 X20.986 Y41.347 B1.46056
G0 F300 X21.105 Y41.334
G1 F90 X21.058 Y41.241 B1.46143
G1 X20.939 Y41.209 B1.46245
G1 X20.87 Y41.244 B1.4631
G1 X20.823 Y41.344 B1.46401
G1 X20.88 Y41.467 B1.46514
G1 X20.965 Y41.495 B1.46589
G1 X21.082 Y41.413 B1.46707
G1 X21.105 Y41.334 B1.46776
G0 F300 X21.173 Y41.462
G1 F90 X21.207 Y41.336 B1.46884
G1 X21.136 Y41.171 B1.47034
G1 X20.939 Y41.107 B1.47206
G1 X20.802 Y41.166 B1.4733
G1 X20.719 Y41.359 B1.47505
G1 X20.805 Y41.544 B1.47674
G1 X20.955 Y41.597 B1.47807
G1 X21.095 Y41.55 B1.47929
G1 X21.173 Y41.462 B1.48027
G0 F300 X21.263 Y41.511
G1 F90 X21.302 Y41.282 B1.4822
G1 X21.213 Y41.099 B1.48389
G1 X20.942 Y41.005 B1.48628
G1 X20.734 Y41.089 B1.48815
G1 X20.639 Y41.222 B1.4895
G1 X20.616 Y41.373 B1.49077
G1 X20.725 Y41.608 B1.49293
G1 X20.941 Y41.697 B1.49487
G1 X21.155 Y41.634 B1.49673
G1 X21.263 Y41.511 B1.49809
G0 F300 X21.281 Y41.52
;TYPB:WALL-OUTBR
G1 F90 X21.321 Y41.277 B1.50013
G1 X21.231 Y41.094 B1.50183
G1 F89.1 X21.31 Y41.002 B1.50285
G1 X21.218 Y41.081 B1.50387
G1 F90 X20.943 Y40.985 B1.50629
G1 X20.721 Y41.073 B1.50827
G1 X20.62 Y41.215 B1.50972
G1 X20.595 Y41.376 B1.51108
G1 X20.709 Y41.62 B1.51332
G1 X20.939 Y41.717 B1.51539
G1 X21.166 Y41.65 B1.51736
G1 X21.281 Y41.52 B1.5188
G0 F300 X21.302 Y41.392
G0 X21.31 Y41.002
G1 F87.4 X21.956 Y40.351 B1.52666
G1 F88.2 X21.958 Y19.402 B1.70433
G1 F300 B-4.79567
G0 X20.942 Y43.064
G0 X20.972 Y43.348
G1 F300 B1.70433
G0 X20.986 Y43.347
;TYPB:WALL-INNBR
G1 F56.2 X20.956 Y43.33 B1.70479
G1 X20.956 Y43.364 B1.70525
G1 X20.986 Y43.347 B1.7057
G0 F300 X21.105 Y43.334
G1 F90 X21.058 Y43.241 B1.70657
G1 X20.939 Y43.209 B1.7076
G1 X20.87 Y43.244 B1.70824
G1 X20.823 Y43.344 B1.70916
G1 X20.88 Y43.467 B1.71029
G1 X20.965 Y43.495 B1.71103
G1 X21.082 Y43.413 B1.71222
G1 X21.105 Y43.334 B1.7129
G0 F300 X21.173 Y43.462
G1 F90 X21.207 Y43.336 B1.71399
G1 X21.136 Y43.171 B1.71548
G1 X20.939 Y43.107 B1.7172
G1 X20.802 Y43.166 B1.71844
G1 X20.719 Y43.359 B1.72019
G1 X20.805 Y43.544 B1.72189
G1 X20.955 Y43.597 B1.72321
G1 X21.095 Y43.55 B1.72444
G1 X21.173 Y43.462 B1.72541
G0 F300 X21.263 Y43.511
G1 F90 X21.302 Y43.282 B1.72735
G1 X21.213 Y43.099 B1.72904
G1 X20.942 Y43.005 B1.73142
G1 X20.734 Y43.089 B1.73329
G1 X20.639 Y43.222 B1.73465
G1 X20.616 Y43.373 B1.73592
G1 X20.725 Y43.608 B1.73807
G1 X20.941 Y43.697 B1.74001
G1 X21.155 Y43.634 B1.74187
G1 X21.263 Y43.511 B1.74323
G0 F300 X21.281 Y43.52
;TYPB:WALL-OUTBR
G1 F90 X21.321 Y43.277 B1.74528
G1 X21.231 Y43.094 B1.74697
G1 F89.1 X21.31 Y43.002 B1.74799
G1 X21.218 Y43.081 B1.74901
G1 F90 X20.943 Y42.985 B1.75143
G1 X20.721 Y43.073 B1.75342
G1 X20.62 Y43.215 B1.75487
G1 X20.595 Y43.376 B1.75622
G1 X20.709 Y43.62 B1.75846
G1 X20.939 Y43.717 B1.76054
G1 X21.166 Y43.65 B1.7625
G1 X21.281 Y43.52 B1.76395
G0 F300 X21.302 Y43.392
G0 X21.31 Y43.002
G1 F87.4 X22.956 Y41.351 B1.78391
G1 F88.2 X22.958 Y19.402 B1.97007
G1 F300 B-4.52993
G0 X18.96 Y39.058
G0 X18.974 Y39.35
G1 F300 B1.97007
G0 X19.091 Y39.289
;TYPB:WALL-INNBR
G1 F90 X18.955 Y39.211 B1.97138
G1 X18.825 Y39.289 B1.97264
G1 X18.842 Y39.433 B1.97384
G1 X18.955 Y39.489 B1.97489
G1 X19.074 Y39.433 B1.97598
G1 X19.091 Y39.289 B1.97719
G0 F300 X19.198 Y39.394
G1 F90 X19.18 Y39.237 B1.9785
G1 X19.09 Y39.145 B1.97957
G1 X18.956 Y39.102 B1.98074
G1 X18.826 Y39.145 B1.98188
G1 X18.727 Y39.259 B1.98314
G1 X18.718 Y39.394 B1.98426
G1 X18.759 Y39.494 B1.98516
G1 X18.956 Y39.593 B1.98699
G1 X19.157 Y39.494 B1.98886
G1 X19.198 Y39.394 B1.98976
G0 F300 X19.239 Y39.555
G1 F90 X19.3 Y39.411 B1.99106
G1 X19.265 Y39.181 B1.99299
G1 X19.145 Y39.059 B1.99441
G1 X18.958 Y38.997 B1.99605
G1 X18.771 Y39.059 B1.99769
G1 X18.652 Y39.181 B1.99911
G1 X18.616 Y39.411 B2.00104
G1 X18.677 Y39.555 B2.00234
G1 X18.802 Y39.658 B2.00369
G1 X18.958 Y39.696 B2.00503
G1 X19.112 Y39.658 B2.00634
G1 X19.239 Y39.555 B2.0077
G0 F300 X19.256 Y39.568
;TYPB:WALL-OUTBR
G1 F90 X19.32 Y39.414 B2.00909
G1 X19.282 Y39.169 B2.01115
G1 X19.156 Y39.041 B2.01265
G1 X18.965 Y38.976 B2.01432
G1 X18.958 Y38.856 B2.01532
G1 X18.951 Y38.976 B2.01632
G1 X18.76 Y39.041 B2.018
G1 X18.635 Y39.17 B2.01949
G1 X18.596 Y39.414 B2.02155
G1 X18.66 Y39.568 B2.02293
G1 X18.792 Y39.676 B2.02435
G1 X18.958 Y39.717 B2.02577
G1 X19.121 Y39.676 B2.02717
G1 X19.256 Y39.568 B2.02861
G0 F300 X19.305 Y39.449
G0 X18.958 Y38.856
G1 F90 X18.958 Y19.402 B2.19037
;TIMB_BLAPSBD:250.210596
G1 F300 B-4.30963
G1 B-5 C-5
G1 Z10
G1 X0 Y0
M82 ;absolutB Bxtrusion modB
;Bnd of GcodB
;SBTTING_3 {"global_quality": "[gBnBral]\\nvBrsion = 4\\nnamB = FinB #2\\ndBfini
;SBTTING_3 tion = custom\\n\\n[mBtadata]\\ntypB = quality_changBs\\nquality_typB
;SBTTING_3  = normal\\nsBtting_vBrsion = 25\\n\\n[valuBs]\\nadhBsion_typB = nonB
;SBTTING_3 \\nlayBr_hBight = 0.1\\nlayBr_hBight_0 = 0.2\\n\\n", "BxtrudBr_qualit
;SBTTING_3 y": ["[gBnBral]\\nvBrsion = 4\\nnamB = FinB #2\\ndBfinition = custom\
;SBTTING_3 \n\\n[mBtadata]\\ntypB = quality_changBs\\nquality_typB = normal\\nin
;SBTTING_3 tBnt_catBgory = dBfault\\nposition = 0\\nsBtting_vBrsion = 25\\n\\n[v
;SBTTING_3 aluBs]\\naccBlBration_print = 100\\naccBlBration_travBl = 100\\ninfil
;SBTTING_3 l_sparsB_dBnsity = 100\\nlinB_width = 0.1\\nmatBrial_print_tBmpBratur
;SBTTING_3 B = 0\\nrBtract_at_layBr_changB = TruB\\nrBtraction_spBBd = 5\\nspBBd
;SBTTING_3 _print = 3\\nspBBd_travBl = 10.0\\n\\n", "[gBnBral]\\nvBrsion = 4\\nn
;SBTTING_3 amB = FinB #2\\ndBfinition = custom\\n\\n[mBtadata]\\ntypB = quality_
;SBTTING_3 changBs\\nquality_typB = normal\\nintBnt_catBgory = dBfault\\npositio
;SBTTING_3 n = 1\\nsBtting_vBrsion = 25\\n\\n[valuBs]\\nlinB_width = 0.21\\nrBtr
;SBTTING_3 action_amount = 2\\nrBtraction_spBBd = 2.5\\nspBBd_print = 5.0\\nspBB
;SBTTING_3 d_travBl = 5\\nspBBd_z_hop = 5\\nswitch_BxtrudBr_rBtraction_amount = 
;SBTTING_3 2\\nswitch_BxtrudBr_rBtraction_spBBds = 5\\n\\n"]}
